GLOBALSTAR M075 [+]     
1 37192U 10054E   23345.43457146 -.00000110  00000+0 -34459-4 0  9995
2 37192  51.9961  67.5937 0000756 120.2007 319.9286 12.62268054606075
GLOBALSTAR M073 [+]     
1 37193U 10054F   23345.19663608 -.00000097  00000+0  37304-4 0  9996
2 37193  52.0080 341.7129 0000253  74.8241   5.5302 12.62270194607870
GLOBALSTAR M083 [+]     
1 37739U 11033A   23345.05412003 -.00000095  00000+0  47454-4 0  9991
2 37739  51.9873 291.6354 0000887  60.1680  32.8583 12.62263627576877
GLOBALSTAR M088 [+]     
1 37740U 11033B   23345.81712435 -.00000061  00000+0  24117-3 0  9992
2 37740  51.9711 195.2689 0001368  86.3998 355.5496 12.62268731572805
GLOBALSTAR M091 [+]     
1 37741U 11033C   23345.65845404 -.00000088  00000+0  88282-4 0  9991
2 37741  51.9973 158.3167 0001425 101.1589 278.5924 12.62269615573547
GLOBALSTAR M085 [+]     
1 37742U 11033D   23345.66353682 -.00000116  00000+0 -70242-4 0  9995
2 37742  51.9859 109.8284 0001170 114.1884 348.8604 12.62265780574288
GLOBALSTAR M081 [+]     
1 37743U 11033E   23345.69016299 -.00000128  00000+0 -13401-3 0  9995
2 37743  51.9950 112.1926 0001210 121.9000 342.3263 12.62267538574320
GLOBALSTAR M089 [+]     
1 37744U 11033F   23345.57211366 -.00000111  00000+0 -40587-4 0  9993
2 37744  51.9944  66.8837 0000553 145.5697 322.2687 12.62269848575024
